[{"OBJECT_NAME":"STARLINK-5571","OBJECT_ID":"2023-013BB","EPOCH":"2026-03-09T23:08:17.314656","MEAN_MOTION":15.03346189,"ECCENTRICITY":5.26e-5,"INCLINATION":43.0018,"RA_OF_ASC_NODE":285.577,"ARG_OF_PERICENTER":229.744,"MEAN_ANOMALY":130.3357,"EPHEMERIS_TYPE":0,"CLASSIFICATION_TYPE":"U","NORAD_CAT_ID":55380,"ELEMENT_SET_NO":999,"REV_AT_EPOCH":17190,"BSTAR":0.00010376908,"MEAN_MOTION_DOT":1.228e-5,"MEAN_MOTION_DDOT":0},{"OBJECT_NAME":"CZ-4B DEB","OBJECT_ID":"2008-053G","EPOCH":"2026-03-08T12:59:24.951264","MEAN_MOTION":14.89391484,"ECCENTRICITY":0.01030319,"INCLINATION":97.6151,"RA_OF_ASC_NODE":98.188,"ARG_OF_PERICENTER":41.7816,"MEAN_ANOMALY":319.121,"EPHEMERIS_TYPE":0,"CLASSIFICATION_TYPE":"U","NORAD_CAT_ID":35571,"ELEMENT_SET_NO":999,"REV_AT_EPOCH":91755,"BSTAR":0.0016985241,"MEAN_MOTION_DOT":0.00017804,"MEAN_MOTION_DDOT":0}]
